IRIDIUM 103             
1 41918U 17003B   26187.68775647  .00000001  00000+0 -68471-5 0  9990
2 41918  86.3949  80.3031 0001912  79.2870 280.8541 14.34217589496028
IRIDIUM 102             
1 41920U 17003D   26187.80192383  .00000016  00000+0 -12444-5 0  9992
2 41920  86.3951  80.2384 0002281  85.0865 275.0591 14.34217759496090
IRIDIUM 104             
1 41922U 17003F   26187.74483786  .00000194  00000+0  62126-4 0  9994
2 41922  86.3953  80.3051 0002211  77.3960 282.7483 14.34218553496075
IRIDIUM 114             
1 41923U 17003G   26187.68141394  .00000230  00000+0  74912-4 0  9991
2 41923  86.3952  80.3147 0002162  80.7314 279.4126 14.34217479496047
IRIDIUM 112             
1 41925U 17003J   26187.73849634  .00000139  00000+0  42558-4 0  9990
2 41925  86.3947  80.1320 0002245  82.1066 278.0384 14.34218636496076
IRIDIUM 111             
1 41926U 17003K   26187.79557992  .00000107  00000+0  31079-4 0  9991
2 41926  86.3950  80.1791 0002195  84.4155 275.7291 14.34217934496061
